NORAD_CAT_ID,OBJECT_NAME,OBJECT_TYPE,EPOCH,MEAN_MOTION,ECCENTRICITY,INCLINATION,RA_OF_ASC_NODE,ARG_OF_PERICENTER,MEAN_ANOMALY,BSTAR,MEAN_MOTION_DOT,MEAN_MOTION_DDOT,TLE_LINE0,TLE_LINE1,TLE_LINE2,SEMIMAJOR_AXIS,PERIOD,APOGEE,PERIGEE,DECAYED
53855.0,STARLINK-4703,PAYLOAD,2024-07-17 01:55:58,15.08851908,0.0001343,53.2157,110.1017,93.0173,267.0973,0.00031007,4.652e-05,0.0,0 STARLINK-4703,1 53855U 22114AP  24199.08053689  .00004652  00000-0  31007-3 0  9991,2 53855  53.2157 110.1017 0001343  93.0173 267.0973 15.08851908101760,6917.844,95.437,540.638,538.78,0.0
53855.0,STARLINK-4703,PAYLOAD,2024-07-17 11:28:16,15.08862771,0.0001384,53.2154,108.3194,86.859,273.2561,0.00063559,9.848e-05,0.0,0 STARLINK-4703,1 53855U 22114AP  24199.47797337  .00009848  00000-0  63559-3 0  9998,2 53855  53.2154 108.3194 0001384  86.8590 273.2561 15.08862771102369,6917.811,95.436,540.633,538.718,0.0
53855.0,STARLINK-4703,PAYLOAD,2024-07-18 00:11:22,15.08829483,0.0001537,53.216,105.9382,102.0567,258.0598,-8.6774e-05,-1.668e-05,0.0,0 STARLINK-4703,1 53855U 22114AP  24200.00790180 -.00001668  00000-0 -86774-4 0  9998,2 53855  53.2160 105.9382 0001537 102.0567 258.0598 15.08829483101906,6917.913,95.438,540.841,538.714,0.0
53855.0,STARLINK-4703,PAYLOAD,2024-07-18 11:19:04,15.0884122,0.0001716,53.2174,103.8531,121.2757,238.8404,0.00096254,0.00015065,0.0,0 STARLINK-4703,1 53855U 22114AP  24200.47158365  .00015065  00000-0  96254-3 0  9999,2 53855  53.2174 103.8531 0001716 121.2757 238.8404 15.08841220101979,6917.877,95.437,540.929,538.555,0.0
53855.0,STARLINK-4703,PAYLOAD,2024-07-18 20:51:23,15.08839458,0.0002061,53.2182,102.0679,133.8077,226.3085,0.00074052,0.00011517,0.0,0 STARLINK-4703,1 53855U 22114AP  24200.86902624  .00011517  00000-0  74052-3 0  9997,2 53855  53.2182 102.0679 0002061 133.8077 226.3085 15.08839458102035,6917.882,95.438,541.173,538.321,0.0
53855.0,STARLINK-4703,PAYLOAD,2024-07-18 22:26:47,15.08840475,0.0002119,53.2166,101.7709,131.5493,228.5681,0.00087883,0.00013726,0.0,0 STARLINK-4703,1 53855U 22114AP  24200.93526632  .00013726  00000-0  87883-3 0  9996,2 53855  53.2166 101.7709 0002119 131.5493 228.5681 15.08840475102585,6917.879,95.438,541.21,538.278,0.0
53855.0,STARLINK-4703,PAYLOAD,2024-07-19 00:02:10,15.08840541,0.0001974,53.2173,101.4746,126.734,233.3833,0.00085577,0.00013358,0.0,0 STARLINK-4703,1 53855U 22114AP  24201.00150694  .00013358  00000-0  85577-3 0  9995,2 53855  53.2173 101.4746 0001974 126.7340 233.3833 15.08840541102594,6917.879,95.438,541.109,538.378,0.0
53855.0,STARLINK-4703,PAYLOAD,2024-07-19 20:42:11,15.08834744,0.0001298,53.2173,97.6134,113.4639,246.649,0.00038372,5.823e-05,0.0,0 STARLINK-4703,1 53855U 22114AP  24201.86263410  .00005823  00000-0  38372-3 0  9999,2 53855  53.2173  97.6134 0001298 113.4639 246.6490 15.08834744102183,6917.896,95.438,540.659,538.864,0.0
53855.0,STARLINK-4703,PAYLOAD,2024-07-19 22:17:34,15.08837038,0.0001512,53.2164,97.3088,138.7566,221.3541,0.00035523,5.37e-05,0.0,0 STARLINK-4703,1 53855U 22114AP  24201.92887211  .00005370  00000-0  35523-3 0  9999,2 53855  53.2164  97.3088 0001512 138.7566 221.3541 15.08837038102733,6917.889,95.438,540.8,538.708,0.0
53855.0,STARLINK-4703,PAYLOAD,2024-07-19 23:52:58,15.08827371,6.43e-05,53.215,97.0179,85.9019,274.2046,0.00025593,3.786e-05,0.0,0 STARLINK-4703,1 53855U 22114AP  24201.99511673  .00003786  00000-0  25593-3 0  9997,2 53855  53.2150  97.0179 0000643  85.9019 274.2046 15.08827371102204,6917.919,95.438,540.229,539.339,0.0
53855.0,STARLINK-4703,PAYLOAD,2024-07-20 22:08:22,15.08847553,0.0001135,53.2151,92.8525,44.1194,315.9889,0.00083524,0.00013033,0.0,0 STARLINK-4703,1 53855U 22114AP  24202.92247988  .00013033  00000-0  83524-3 0  9990,2 53855  53.2151  92.8525 0001135  44.1194 315.9889 15.08847553102887,6917.857,95.437,540.507,538.937,0.0
53855.0,STARLINK-4703,PAYLOAD,2024-07-21 02:54:31,15.08866689,8.9e-05,53.2155,91.9624,63.7971,296.3112,0.0013811,0.00021777,0.0,0 STARLINK-4703,1 53855U 22114AP  24203.12119567  .00021777  00000-0  13811-2 0  9999,2 53855  53.2155  91.9624 0000890  63.7971 296.3112 15.08866689102374,6917.799,95.436,540.279,539.048,0.0
53855.0,STARLINK-4703,PAYLOAD,2024-07-21 20:23:45,15.08868642,0.0001596,53.2154,88.6889,117.569,242.5464,0.00084098,0.00013132,0.0,0 STARLINK-4703,1 53855U 22114AP  24203.84983035  .00013132  00000-0  84098-3 0  9999,2 53855  53.2154  88.6889 0001596 117.5690 242.5464 15.08868642102485,6917.793,95.436,540.762,538.554,0.0
53855.0,STARLINK-4703,PAYLOAD,2024-07-21 21:59:08,15.08861859,0.0001302,53.2154,88.3912,101.6041,258.5098,0.0012734,0.00020048,0.0,0 STARLINK-4703,1 53855U 22114AP  24203.91607264  .00020048  00000-0  12734-2 0  9995,2 53855  53.2154  88.3912 0001302 101.6041 258.5098 15.08861859103033,6917.814,95.436,540.579,538.778,0.0
53855.0,STARLINK-4703,PAYLOAD,2024-07-21 23:34:31,15.08851666,0.0001112,53.2156,88.103,80.7678,279.344,0.0010047,0.00015743,0.0,0 STARLINK-4703,1 53855U 22114AP  24203.98231458  .00015743  00000-0  10047-2 0  9991,2 53855  53.2156  88.1030 0001112  80.7678 279.3440 15.08851666102504,6917.845,95.437,540.479,538.94,0.0
53855.0,STARLINK-4703,PAYLOAD,2024-07-22 21:49:55,15.08852738,0.0001287,53.2154,83.9361,90.7746,269.3394,0.00063754,9.877e-05,0.0,0 STARLINK-4703,1 53855U 22114AP  24204.90967150  .00009877  00000-0  63754-3 0  9994,2 53855  53.2154  83.9361 0001287  90.7746 269.3394 15.08852738103185,6917.841,95.437,540.597,538.816,0.0
53855.0,STARLINK-4703,PAYLOAD,2024-07-23 01:00:41,15.0885585,0.000134,53.2154,83.3383,86.2505,273.864,0.00034037,5.136e-05,0.0,0 STARLINK-4703,1 53855U 22114AP  24205.04214852  .00005136  00000-0  34037-3 0  9990,2 53855  53.2154  83.3383 0001340  86.2505 273.8640 15.08855850102660,6917.832,95.437,540.624,538.77,0.0
53855.0,STARLINK-4703,PAYLOAD,2024-07-23 08:57:37,15.08858392,0.000134,53.2152,81.852,87.5267,272.5879,0.0003742,5.675e-05,0.0,0 STARLINK-4703,1 53855U 22114AP  24205.37334504  .00005675  00000-0  37420-3 0  9990,2 53855  53.2152  81.8520 0001340  87.5267 272.5879 15.08858392103253,6917.824,95.436,540.616,538.762,0.0
53855.0,STARLINK-4703,PAYLOAD,2024-07-24 00:51:29,15.08831507,0.0001273,53.2151,78.8767,95.7924,264.3213,-8.0185e-05,-1.563e-05,0.0,0 STARLINK-4703,1 53855U 22114AP  24206.03575658 -.00001563  00000-0 -80185-4 0  9992,2 53855  53.2151  78.8767 0001273  95.7924 264.3213 15.08831507102818,6917.906,95.438,540.652,538.891,0.0
53855.0,STARLINK-4703,PAYLOAD,2024-07-24 15:09:57,15.08836308,0.0001182,53.2157,76.1999,99.2869,260.8256,0.00034203,5.159e-05,0.0,0 STARLINK-4703,1 53855U 22114AP  24206.63191878  .00005159  00000-0  34203-3 0  9998,2 53855  53.2157  76.1999 0001182  99.2869 260.8256 15.08836308103440,6917.892,95.438,540.574,538.939,0.0
53855.0,STARLINK-4703,PAYLOAD,2024-07-25 00:42:16,15.08851291,0.0001181,53.2142,74.4187,100.1052,260.0074,0.00090577,0.00014161,0.0,0 STARLINK-4703,1 53855U 22114AP  24207.02935676  .00014161  00000-0  90577-3 0  9993,2 53855  53.2142  74.4187 0001181 100.1052 260.0074 15.08851291102963,6917.846,95.437,540.528,538.894,0.0
53855.0,STARLINK-4703,PAYLOAD,2024-07-25 15:00:44,15.08854451,0.0001211,53.2127,71.7427,98.9852,261.1277,0.00054111,8.338e-05,0.0,0 STARLINK-4703,1 53855U 22114AP  24207.62551333  .00008338  00000-0  54111-3 0  9996,2 53855  53.2127  71.7427 0001211  98.9852 261.1277 15.08854451103058,6917.836,95.437,540.539,538.863,0.0
53855.0,STARLINK-4703,PAYLOAD,2024-07-25 21:22:16,15.08842926,2.03e-05,53.2179,70.5496,284.6076,75.4893,0.00028616,4.27e-05,0.0,0 STARLINK-4703,1 53855U 22114AP  24207.89047416  .00004270  00000-0  28616-3 0  9999,2 53855  53.2179  70.5496 0000203 284.6076  75.4893 15.08842926103098,6917.871,95.437,539.877,539.596,0.0
53855.0,STARLINK-4703,PAYLOAD,2024-07-26 08:29:58,15.08852047,0.0001473,53.2144,68.4727,82.6892,277.4267,0.00041936,6.395e-05,0.0,0 STARLINK-4703,1 53855U 22114AP  24208.35415319  .00006395  00000-0  41936-3 0  9992,2 53855  53.2144  68.4727 0001473  82.6892 277.4267 15.08852047103707,6917.844,95.437,540.728,538.69,0.0
53855.0,STARLINK-4703,PAYLOAD,2024-07-26 21:13:03,15.08851214,0.0001709,53.2155,66.0908,95.602,264.5167,0.00051968,7.995e-05,0.0,0 STARLINK-4703,1 53855U 22114AP  24208.88407230  .00007995  00000-0  51968-3 0  9996,2 53855  53.2155  66.0908 0001709  95.6020 264.5167 15.08851214103782,6917.846,95.437,540.893,538.529,0.0
53855.0,STARLINK-4703,PAYLOAD,2024-07-27 21:03:51,15.08831978,0.0001401,53.2161,61.6311,91.2322,268.883,-0.00010219,-1.914e-05,0.0,0 STARLINK-4703,1 53855U 22114AP  24209.87767644 -.00001914  00000-0 -10219-3 0  9995,2 53855  53.2161  61.6311 0001401  91.2322 268.8830 15.08831978103930,6917.905,95.438,540.739,538.801,0.0
53855.0,STARLINK-4703,PAYLOAD,2024-07-27 22:39:14,15.08833104,0.0001349,53.2161,61.3336,98.7091,261.4054,-5.0214e-05,-1.087e-05,0.0,0 STARLINK-4703,1 53855U 22114AP  24209.94391618 -.00001087  00000-0 -50214-4 0  9998,2 53855  53.2161  61.3336 0001349  98.7091 261.4054 15.08833104103402,6917.901,95.438,540.7,538.833,0.0
53855.0,STARLINK-4703,PAYLOAD,2024-07-28 20:54:38,15.08837269,0.0001437,53.2177,57.1723,99.2795,260.836,0.00017158,2.444e-05,0.0,0 STARLINK-4703,1 53855U 22114AP  24210.87128167  .00002444  00000-0  17158-3 0  9994,2 53855  53.2177  57.1723 0001437  99.2795 260.8360 15.08837269104081,6917.889,95.438,540.748,538.76,0.0
53855.0,STARLINK-4703,PAYLOAD,2024-07-29 12:48:29,15.08846453,0.0001375,53.2168,54.2022,91.9541,268.1608,0.00037519,5.689e-05,0.0,0 STARLINK-4703,1 53855U 22114AP  24211.53367918  .00005689  00000-0  37519-3 0  9994,2 53855  53.2168  54.2022 0001375  91.9541 268.1608 15.08846453103642,6917.861,95.437,540.677,538.774,0.0
53855.0,STARLINK-4703,PAYLOAD,2024-07-29 20:45:25,15.0883666,0.000123,53.2174,52.7142,97.056,263.0572,0.00011414,1.529e-05,0.0,0 STARLINK-4703,1 53855U 22114AP  24211.86488198  .00001529  00000-0  11414-3 0  9999,2 53855  53.2174  52.7142 0001230  97.0560 263.0572 15.08836660103691,6917.891,95.438,540.606,538.905,0.0
